{
"type": "FeatureCollection",
"name": "Marquages effacés",
"crs": { "type": "name", "properties": { "name": "urn:ogc:def:crs:OGC:1.3:CRS84" } },
"features": [
{ "type": "Feature", "properties": { "fid": 219, "type": "Marquages effacés", "description": "Traversee marquage effacer", "photo": "20260414_103747.jpg" }, "geometry": { "type": "Polygon", "coordinates": [ [ [ -0.666288839527143, 44.818426495654379 ], [ -0.66623941773479, 44.81825960079393 ], [ -0.666081967894449, 44.818179140912648 ], [ -0.665975797556595, 44.818083291619146 ], [ -0.665746750219858, 44.818075880907429 ], [ -0.66573529077225, 44.818099360461225 ], [ -0.665969680679282, 44.818106540254263 ], [ -0.666060704280552, 44.818189675864396 ], [ -0.666189201363192, 44.818247628804173 ], [ -0.666253742735141, 44.818455894819316 ], [ -0.666288839527143, 44.818426495654379 ] ] ] } },
{ "type": "Feature", "properties": { "fid": 203, "type": "Marquages effacés", "description": "Marquage effacer", "photo": "20260414_101445.jpg" }, "geometry": { "type": "Polygon", "coordinates": [ [ [ -0.667193463722666, 44.841218809750032 ], [ -0.667172938652339, 44.841219422695232 ], [ -0.666999641470914, 44.840781319461037 ], [ -0.667032822477255, 44.840780803870985 ], [ -0.667193463722666, 44.841218809750032 ] ] ] } },
{ "type": "Feature", "properties": { "fid": 194, "type": "Marquages effacés", "description": "Marquages effacés ", "photo": "JPEG_20260414_115812_7344910961846847543.jpg" }, "geometry": { "type": "Polygon", "coordinates": [ [ [ -0.667752484213922, 44.841940084421111 ], [ -0.667742155454999, 44.841955089696533 ], [ -0.667964015070273, 44.842033331832127 ], [ -0.66797281126795, 44.84201944408688 ], [ -0.667752484213922, 44.841940084421111 ] ] ] } },
{ "type": "Feature", "properties": { "fid": 155, "type": "Problème de revêtement Marquages effacés", "description": "Marquage +revtement", "photo": "20260410_114615.jpg" }, "geometry": { "type": "Polygon", "coordinates": [ [ [ -0.666703287201558, 44.841665270431875 ], [ -0.666383245738935, 44.841675895097445 ], [ -0.664061432547567, 44.841929238581116 ], [ -0.662943739516168, 44.842036438188885 ], [ -0.661540900180991, 44.842158633446772 ], [ -0.661117924033234, 44.84216467662327 ], [ -0.659642459322778, 44.841867009573384 ], [ -0.659005769529771, 44.841732114809673 ], [ -0.658548710958547, 44.841674608994325 ], [ -0.657693479125752, 44.841651559931243 ], [ -0.657715743764737, 44.841537919622866 ], [ -0.658923875092641, 44.841595554684133 ], [ -0.659325086235972, 44.841681797443997 ], [ -0.660362128770836, 44.841879018368573 ], [ -0.660794381483383, 44.841961884689809 ], [ -0.661397681559306, 44.842034223964582 ], [ -0.662136793788914, 44.841974240646287 ], [ -0.662671639070944, 44.841932589214871 ], [ -0.663731632242903, 44.841822738303556 ], [ -0.664022380862414, 44.841796008566959 ], [ -0.664316142374318, 44.841763744852329 ], [ -0.665144682699061, 44.841688754387697 ], [ -0.665936710148778, 44.841620864175141 ], [ -0.666736005829894, 44.841576165178957 ], [ -0.666703287201558, 44.841665270431875 ] ] ] } },
{ "type": "Feature", "properties": { "fid": 148, "type": "Marquages effacés", "description": "Marquage", "photo": "20260410_113503.jpg" }, "geometry": { "type": "Polygon", "coordinates": [ [ [ -0.668639277566349, 44.856615585845645 ], [ -0.668624667847474, 44.856607084054005 ], [ -0.668716349394676, 44.856530141444161 ], [ -0.668728043217213, 44.856535860708973 ], [ -0.668639277566349, 44.856615585845645 ] ] ] } },
{ "type": "Feature", "properties": { "fid": 147, "type": "Marquages effacés", "description": "Marquage", "photo": "20260410_113342.jpg" }, "geometry": { "type": "Polygon", "coordinates": [ [ [ -0.667469391251974, 44.857601726947401 ], [ -0.667485479647936, 44.857611600074925 ], [ -0.667570112692346, 44.857539328350491 ], [ -0.667550214818031, 44.857536198778021 ], [ -0.667469391251974, 44.857601726947401 ] ] ] } },
{ "type": "Feature", "properties": { "fid": 144, "type": "Marquages effacés", "description": "Marquage", "photo": "20260410_113122.jpg" }, "geometry": { "type": "Polygon", "coordinates": [ [ [ -0.666961744343367, 44.857988092313079 ], [ -0.667000837186288, 44.857956902664959 ], [ -0.667070797587826, 44.85794692937526 ], [ -0.667092430462822, 44.857949489260598 ], [ -0.667053570652471, 44.857966033267815 ], [ -0.667012353400646, 44.857972550738666 ], [ -0.666961744343367, 44.857988092313079 ] ] ] } },
{ "type": "Feature", "properties": { "fid": 129, "type": "Marquages effacés", "description": "Bandes legerement effacer ", "photo": "20260410_110238.jpg" }, "geometry": { "type": "Polygon", "coordinates": [ [ [ -0.659198063999591, 44.857318687772057 ], [ -0.659885385450627, 44.857448851494226 ], [ -0.659889772608308, 44.85743494974411 ], [ -0.659205130161365, 44.857306880648125 ], [ -0.659198063999591, 44.857318687772057 ] ] ] } },
{ "type": "Feature", "properties": { "fid": 126, "type": "Marquages effacés", "description": "Double marquage ", "photo": "JPEG_20260410_120315_7179230234852941178.jpg" }, "geometry": { "type": "Polygon", "coordinates": [ [ [ -0.637930525988184, 44.839705485317879 ], [ -0.637652822008741, 44.839632989330653 ], [ -0.637364586195248, 44.839573935645504 ], [ -0.636864230010666, 44.839491651261881 ], [ -0.636531407343629, 44.839434299959684 ], [ -0.636377940986975, 44.839413107365758 ], [ -0.636378854286667, 44.839381760050678 ], [ -0.637152655623667, 44.83951517002339 ], [ -0.637535291974258, 44.839582630961651 ], [ -0.637913664008476, 44.839669746328312 ], [ -0.637930525988184, 44.839705485317879 ] ] ] } },
{ "type": "Feature", "properties": { "fid": 125, "type": "Marquages effacés", "description": "Marquage totalement effacé ", "photo": null }, "geometry": { "type": "Polygon", "coordinates": [ [ [ -0.631789987074518, 44.839340023167054 ], [ -0.631777129060126, 44.839258730771228 ], [ -0.630992892836047, 44.839278691974862 ], [ -0.630996527285409, 44.839390171559543 ], [ -0.631789987074518, 44.839340023167054 ] ] ] } },
{ "type": "Feature", "properties": { "fid": 123, "type": "Marquages effacés", "description": "Marquage effacé", "photo": "JPEG_20260410_114031_8581773829769806992.jpg" }, "geometry": { "type": "Polygon", "coordinates": [ [ [ -0.636109861427347, 44.846528082397164 ], [ -0.636298164922928, 44.846554181764098 ], [ -0.6363233220928, 44.846462323836008 ], [ -0.636213455183324, 44.846438518577884 ], [ -0.63609155277323, 44.84643177964228 ], [ -0.636067609476475, 44.846515587368735 ], [ -0.636109861427347, 44.846528082397164 ] ] ] } },
{ "type": "Feature", "properties": { "fid": 120, "type": "Marquages effacés", "description": "Marquage effacé ", "photo": "JPEG_20260410_112938_2373249425295302013.jpg" }, "geometry": { "type": "Polygon", "coordinates": [ [ [ -0.637869763684779, 44.846878757579823 ], [ -0.637835779974763, 44.846964931746335 ], [ -0.638821312053065, 44.847132720702596 ], [ -0.638822942186999, 44.847033759982075 ], [ -0.638657218087536, 44.847013703752594 ], [ -0.638256876734414, 44.846948575360543 ], [ -0.637869763684779, 44.846878757579823 ] ] ] } },
{ "type": "Feature", "properties": { "fid": 122, "type": "Marquages effacés", "description": "Marquage effacé", "photo": "JPEG_20260410_113804_9116852386166692577.jpg" }, "geometry": { "type": "Polygon", "coordinates": [ [ [ -0.6353133, 44.846441339905809 ], [ -0.635132115670674, 44.846429128682587 ], [ -0.634449516007305, 44.846436426782482 ], [ -0.634457904277186, 44.846346762088075 ], [ -0.634694840835207, 44.846349518168765 ], [ -0.634929298860833, 44.846344366487102 ], [ -0.635326337480833, 44.846347242744685 ], [ -0.6353133, 44.846441339905809 ] ] ] } },
{ "type": "Feature", "properties": { "fid": 149, "type": "Marquages effacés", "description": "Marquage", "photo": "20260410_113542.jpg" }, "geometry": { "type": "Polygon", "coordinates": [ [ [ -0.669113869984018, 44.856204976028401 ], [ -0.669188474727802, 44.856118131482333 ], [ -0.669236735016903, 44.856044868867144 ], [ -0.66924746027849, 44.856018236906088 ], [ -0.669231964558452, 44.855985409089229 ], [ -0.669195728922017, 44.855933384342727 ], [ -0.669170418694156, 44.855940220258645 ], [ -0.669208020461265, 44.855993824682649 ], [ -0.669216332952187, 44.856020626893056 ], [ -0.669200172527752, 44.856038754904219 ], [ -0.669157341706978, 44.856122116791809 ], [ -0.669086968957516, 44.856201234401638 ], [ -0.669113869984018, 44.856204976028401 ] ] ] } },
{ "type": "Feature", "properties": { "fid": 152, "type": "Marquages effacés", "description": "Marquage", "photo": "20260410_113800.jpg" }, "geometry": { "type": "Polygon", "coordinates": [ [ [ -0.669357455624082, 44.854820586504694 ], [ -0.669331982483018, 44.854821407605691 ], [ -0.669397544627915, 44.854413434163277 ], [ -0.669422362681361, 44.85440776644387 ], [ -0.669357455624082, 44.854820586504694 ] ] ] } },
{ "type": "Feature", "properties": { "fid": 153, "type": "Marquages effacés", "description": "Marquage", "photo": "20260410_113917.jpg" }, "geometry": { "type": "Polygon", "coordinates": [ [ [ -0.669581232776607, 44.853723339363263 ], [ -0.669497056558187, 44.853717872873005 ], [ -0.669510732948495, 44.853634259204753 ], [ -0.669588297713459, 44.853632884721463 ], [ -0.669581232776607, 44.853723339363263 ] ] ] } },
{ "type": "Feature", "properties": { "fid": 160, "type": "Marquages effacés", "description": "Marquage", "photo": "20260410_115421.jpg" }, "geometry": { "type": "Polygon", "coordinates": [ [ [ -0.654040709196285, 44.84126105676706 ], [ -0.653862046994951, 44.841241715654448 ], [ -0.653832487495439, 44.841184893471713 ], [ -0.653899990537028, 44.841221986433872 ], [ -0.654041892322678, 44.841241779513588 ], [ -0.654040709196285, 44.84126105676706 ] ] ] } },
{ "type": "Feature", "properties": { "fid": 167, "type": "Marquages effacés", "description": "Marquage effacé", "photo": "JPEG_20260414_103251_3993515998064242950.jpg" }, "geometry": { "type": "Polygon", "coordinates": [ [ [ -0.648159108558503, 44.8312766537993 ], [ -0.648159053446901, 44.831224107787378 ], [ -0.648150672238027, 44.831192651029141 ], [ -0.648154797256063, 44.831189708599659 ], [ -0.648168816699568, 44.831180436168552 ], [ -0.648176613277267, 44.831177333023703 ], [ -0.64818237373075, 44.831219063450085 ], [ -0.648178736324122, 44.831277085855831 ], [ -0.648159108558503, 44.8312766537993 ] ] ] } },
{ "type": "Feature", "properties": { "fid": 171, "type": "Marquages effacés", "description": "Marquages effacés", "photo": "JPEG_20260414_103925_7620680331734557469.jpg" }, "geometry": { "type": "Polygon", "coordinates": [ [ [ -0.648767094921454, 44.827995924496385 ], [ -0.648810059365222, 44.828065674320882 ], [ -0.648870927428269, 44.828082347326443 ], [ -0.648879603449501, 44.828181675318547 ], [ -0.648911271115062, 44.828278281534274 ], [ -0.648880844629019, 44.828319083329959 ], [ -0.648858290070357, 44.82830591662465 ], [ -0.648843960678716, 44.828184874016685 ], [ -0.648751159022344, 44.828095362691677 ], [ -0.648767094921454, 44.827995924496385 ] ] ] } },
{ "type": "Feature", "properties": { "fid": 175, "type": "Marquages effacés", "description": "Marquage effacés ", "photo": "JPEG_20260414_104912_3143999951072492976.jpg" }, "geometry": { "type": "Polygon", "coordinates": [ [ [ -0.648407907956365, 44.828212990242562 ], [ -0.648458730499454, 44.828114181933415 ], [ -0.648524516083854, 44.828113243920519 ], [ -0.648470878314676, 44.828171886818538 ], [ -0.648440232304964, 44.828241012345181 ], [ -0.648407907956365, 44.828212990242562 ] ] ] } },
{ "type": "Feature", "properties": { "fid": 180, "type": "Marquages effacés", "description": "Marquages effacés ", "photo": "JPEG_20260414_105544_2364397750385860247.jpg" }, "geometry": { "type": "Polygon", "coordinates": [ [ [ -0.647961126434798, 44.829306316313975 ], [ -0.64794827084558, 44.829479709249711 ], [ -0.647988216860731, 44.82948136084088 ], [ -0.648009835016147, 44.829312858472434 ], [ -0.647961126434798, 44.829306316313975 ] ] ] } },
{ "type": "Feature", "properties": { "fid": 183, "type": "Marquages effacés", "description": "Marquages effacés", "photo": "JPEG_20260414_110034_6800691601876772545.jpg" }, "geometry": { "type": "Polygon", "coordinates": [ [ [ -0.647994740435424, 44.830418939094585 ], [ -0.647943686860517, 44.830419388162944 ], [ -0.64794568732174, 44.830452136906139 ], [ -0.647996477078046, 44.830449100994095 ], [ -0.647994740435424, 44.830418939094585 ] ] ] } },
{ "type": "Feature", "properties": { "fid": 186, "type": "Marquages effacés", "description": "Marquages effacés ", "photo": "JPEG_20260414_110330_8256322212267293609.jpg" }, "geometry": { "type": "Polygon", "coordinates": [ [ [ -0.648062570457348, 44.830884589979256 ], [ -0.64804277130876, 44.830875797636374 ], [ -0.648043702005863, 44.830920347119189 ], [ -0.648039577559944, 44.830990273318079 ], [ -0.648023578198913, 44.831011949793293 ], [ -0.648022581353685, 44.831036064830286 ], [ -0.648041255581705, 44.831034825972971 ], [ -0.648042435180881, 44.831014026401739 ], [ -0.648061707236279, 44.830998344400314 ], [ -0.648062570457348, 44.830884589979256 ] ] ] } },
{ "type": "Feature", "properties": { "fid": 187, "type": "Marquages effacés", "description": "Marquages effacés ", "photo": "JPEG_20260414_110532_883394355120165611.jpg" }, "geometry": { "type": "Polygon", "coordinates": [ [ [ -0.647965747999718, 44.831689793289485 ], [ -0.647987833268584, 44.831705839791823 ], [ -0.647988230990216, 44.831595318301083 ], [ -0.647970201185705, 44.831605294369631 ], [ -0.647965747999718, 44.831689793289485 ] ] ] } },
{ "type": "Feature", "properties": { "fid": 190, "type": "Marquages effacés", "description": "Marquages effacés ", "photo": "JPEG_20260414_112154_8189175577732636646.jpg" }, "geometry": { "type": "Polygon", "coordinates": [ [ [ -0.6485279233482, 44.815030521667737 ], [ -0.648504149876885, 44.815029160185503 ], [ -0.64852093927817, 44.814952904172891 ], [ -0.648545222646842, 44.814953879181125 ], [ -0.6485279233482, 44.815030521667737 ] ] ] } },
{ "type": "Feature", "properties": { "fid": 195, "type": "Problème de revêtement Marquages effacés", "description": "Marquages effacés et bouche d'égout qui sort", "photo": "JPEG_20260414_115953_6601446283661036845.jpg" }, "geometry": { "type": "Polygon", "coordinates": [ [ [ -0.66912715350723, 44.842549977029499 ], [ -0.669143582023925, 44.842534657509034 ], [ -0.669312691006411, 44.842623176060748 ], [ -0.669302613864327, 44.842636150589584 ], [ -0.66912715350723, 44.842549977029499 ] ] ] } },
{ "type": "Feature", "properties": { "fid": 229, "type": "Marquages effacés", "description": "Traversee marquage effacer", "photo": "20260414_114636.jpg" }, "geometry": { "type": "Polygon", "coordinates": [ [ [ -0.700313583386716, 44.811858980533387 ], [ -0.69904490020231, 44.811813844757793 ], [ -0.69912974837462, 44.811514857790272 ], [ -0.70034967816595, 44.811610949743532 ], [ -0.700313583386716, 44.811858980533387 ] ] ] } },
{ "type": "Feature", "properties": { "fid": 230, "type": "Marquages effacés", "description": "Raffraichir", "photo": "20260414_114848.jpg" }, "geometry": { "type": "Polygon", "coordinates": [ [ [ -0.700868088752684, 44.81539570730628 ], [ -0.700828015006949, 44.815355257650985 ], [ -0.700599912198129, 44.814580888680361 ], [ -0.700667620447374, 44.814581887718624 ], [ -0.700868088752684, 44.81539570730628 ] ] ] } },
{ "type": "Feature", "properties": { "fid": 231, "type": "Marquages effacés", "description": "Marquage et ??", "photo": "20260414_114956.jpg" }, "geometry": { "type": "Polygon", "coordinates": [ [ [ -0.699464914132026, 44.816495226267214 ], [ -0.699481650582575, 44.816469077331263 ], [ -0.699514593561487, 44.816446963773537 ], [ -0.699589316314738, 44.816299674640263 ], [ -0.699601236923263, 44.816268602705321 ], [ -0.699607359292924, 44.816244881000543 ], [ -0.699544308286637, 44.816252150608413 ], [ -0.699522876514437, 44.816256359400299 ], [ -0.699459989098639, 44.816321594336422 ], [ -0.699410705588397, 44.816406969576732 ], [ -0.699437876863059, 44.816489762214189 ], [ -0.699464914132026, 44.816495226267214 ] ] ] } },
{ "type": "Feature", "properties": { "fid": 234, "type": "Marquages effacés", "description": "Marquage effacer traversee", "photo": "20260414_120903.jpg" }, "geometry": { "type": "Polygon", "coordinates": [ [ [ -0.686743813267755, 44.83751311671584 ], [ -0.686642544163313, 44.837521913033761 ], [ -0.68662509672795, 44.837491083535127 ], [ -0.686593694426758, 44.837450062982136 ], [ -0.686629079608646, 44.837375438673973 ], [ -0.686691101834752, 44.837360426204043 ], [ -0.686755452440878, 44.837318996443351 ], [ -0.686846899578489, 44.837331899596407 ], [ -0.686871464033758, 44.837367612372844 ], [ -0.68697181729707, 44.837422527099257 ], [ -0.686943993193745, 44.837487313784386 ], [ -0.686832261332524, 44.837476274641816 ], [ -0.686783380540184, 44.837488916911894 ], [ -0.686743813267755, 44.83751311671584 ] ] ] } },
{ "type": "Feature", "properties": { "fid": 258, "type": "Marquages effacés", "description": "Marquage", "photo": "20260414_124155.jpg" }, "geometry": { "type": "Polygon", "coordinates": [ [ [ -0.677080232171401, 44.853750459513599 ], [ -0.677132212872729, 44.853724736688399 ], [ -0.677062338512382, 44.853723370387002 ], [ -0.676980130299985, 44.853744280158864 ], [ -0.677080232171401, 44.853750459513599 ] ] ] } },
{ "type": "Feature", "properties": { "fid": 259, "type": "Marquages effacés", "description": "Traversee marquage effacer", "photo": "20260414_124317.jpg" }, "geometry": { "type": "Polygon", "coordinates": [ [ [ -0.676821661464194, 44.855207096857562 ], [ -0.676893345294595, 44.855039149607954 ], [ -0.676826263164155, 44.855073083716555 ], [ -0.676736559747991, 44.855074054779486 ], [ -0.676709414523531, 44.855164883514718 ], [ -0.676749200398963, 44.855164608791839 ], [ -0.676792971360134, 44.855176498465752 ], [ -0.676821661464194, 44.855207096857562 ] ] ] } }
]
}
