{
"type": "FeatureCollection",
"name": "Problèmes avec le revêtement",
"crs": { "type": "name", "properties": { "name": "urn:ogc:def:crs:OGC:1.3:CRS84" } },
"features": [
{ "type": "Feature", "properties": { "fid": 250, "type": "Problème de revêtement", "description": "Revetement + racines", "photo": "20260414_122548.jpg" }, "geometry": { "type": "MultiPolygon", "coordinates": [ [ [ [ -0.680389355720057, 44.846208948959749 ], [ -0.680545763930645, 44.846080556992732 ], [ -0.680646564381855, 44.845985913490665 ], [ -0.680624758194452, 44.845977537296939 ], [ -0.680530416677817, 44.84606018280121 ], [ -0.680415938380762, 44.846158749689202 ], [ -0.680389355720057, 44.846208948959749 ] ] ] ] } },
{ "type": "Feature", "properties": { "fid": 227, "type": "Problème de revêtement", "description": "Revetement", "photo": "20260414_111025.jpg" }, "geometry": { "type": "MultiPolygon", "coordinates": [ [ [ [ -0.666618617662664, 44.839866888728132 ], [ -0.666599804262579, 44.839871686635902 ], [ -0.666812716990428, 44.840490321788224 ], [ -0.666896180017255, 44.840788071302804 ], [ -0.666987782262689, 44.841091592084567 ], [ -0.667046700932856, 44.841084308515654 ], [ -0.666618617662664, 44.839866888728132 ] ] ] ] } },
{ "type": "Feature", "properties": { "fid": 215, "type": "Problème de revêtement", "description": "Rien + revetement", "photo": "20260414_103245.jpg" }, "geometry": { "type": "MultiPolygon", "coordinates": [ [ [ [ -0.665705649153673, 44.821875271159961 ], [ -0.665654329185117, 44.821866840512271 ], [ -0.665645073033329, 44.821781178250454 ], [ -0.66557333837139, 44.82172459628967 ], [ -0.665453960621944, 44.821720633638421 ], [ -0.665367429112837, 44.821746153918212 ], [ -0.665324163358283, 44.821794877669362 ], [ -0.665273441317134, 44.821784367235495 ], [ -0.665311118711495, 44.821719283822063 ], [ -0.665400046508881, 44.821666644812368 ], [ -0.665448984180038, 44.82165196064539 ], [ -0.665515208225381, 44.82157903768352 ], [ -0.665530729517112, 44.821539962996241 ], [ -0.665673308203512, 44.821570675269783 ], [ -0.665637227009063, 44.821660074347449 ], [ -0.665663778628253, 44.821724087294378 ], [ -0.665714539040133, 44.821777466299139 ], [ -0.665705649153673, 44.821875271159961 ] ] ] ] } },
{ "type": "Feature", "properties": { "fid": 201, "type": "Problème de revêtement", "description": "Chaussée déformée par les racines", "photo": "JPEG_20260414_123016_2316999149020290622.jpg" }, "geometry": { "type": "MultiPolygon", "coordinates": [ [ [ [ -0.688404885680726, 44.846130029505019 ], [ -0.688162903479047, 44.846070571140125 ], [ -0.688143815012174, 44.846004702224953 ], [ -0.688272191991776, 44.846063716827182 ], [ -0.688422512214901, 44.846103649783558 ], [ -0.688404885680726, 44.846130029505019 ] ] ] ] } },
{ "type": "Feature", "properties": { "fid": 197, "type": "Problème de revêtement", "description": "Bout de chaussée manquant ", "photo": "JPEG_20260414_122337_1320537789010362202.jpg" }, "geometry": { "type": "MultiPolygon", "coordinates": [ [ [ [ -0.681622738542601, 44.844637621327486 ], [ -0.68160866798359, 44.84466140288923 ], [ -0.681496797980918, 44.844640701932967 ], [ -0.681505234579552, 44.844613037360858 ], [ -0.681622738542601, 44.844637621327486 ] ] ] ] } },
{ "type": "Feature", "properties": { "fid": 196, "type": "Problème de revêtement", "description": "Bouche d'égout et chaussée abîmée ", "photo": "JPEG_20260414_120857_436271233893625522.jpg" }, "geometry": { "type": "MultiPolygon", "coordinates": [ [ [ [ -0.668135553132649, 44.841383591303362 ], [ -0.66813798954287, 44.841401465894585 ], [ -0.668038910479742, 44.841408061239818 ], [ -0.668036119349749, 44.841393561154575 ], [ -0.668135553132649, 44.841383591303362 ] ] ] ] } },
{ "type": "Feature", "properties": { "fid": 182, "type": "Problème de revêtement", "description": "Chaussée déformée ", "photo": "JPEG_20260414_105920_5377403133817368049.jpg" }, "geometry": { "type": "MultiPolygon", "coordinates": [ [ [ [ -0.648005709198213, 44.830175856445507 ], [ -0.647959264098565, 44.830175641485823 ], [ -0.647961306949648, 44.830236402594011 ], [ -0.648006620177899, 44.830235649941621 ], [ -0.648005709198213, 44.830175856445507 ] ] ] ] } },
{ "type": "Feature", "properties": { "fid": 176, "type": "Problème de revêtement", "description": "Grille de téléphonie qui ressort", "photo": "JPEG_20260414_105031_5056329951990660922.jpg" }, "geometry": { "type": "MultiPolygon", "coordinates": [ [ [ [ -0.648304644833627, 44.828649428778292 ], [ -0.648279985886468, 44.828712261148901 ], [ -0.648308251158543, 44.828713219232469 ], [ -0.648333935328253, 44.828656514545735 ], [ -0.648304644833627, 44.828649428778292 ] ] ] ] } },
{ "type": "Feature", "properties": { "fid": 173, "type": "Problème de revêtement", "description": "Plaque de téléphonie dans le sol", "photo": "JPEG_20260414_104145_4919476357602380110.jpg" }, "geometry": { "type": "MultiPolygon", "coordinates": [ [ [ [ -0.648808083462196, 44.828140410527659 ], [ -0.648780158999517, 44.828115316659265 ], [ -0.648777843765325, 44.828087498385742 ], [ -0.648811156785756, 44.828088008989674 ], [ -0.648838683400266, 44.828120399745714 ], [ -0.648808083462196, 44.828140410527659 ] ] ] ] } },
{ "type": "Feature", "properties": { "fid": 162, "type": "Problème de revêtement", "description": "Tranchee revetement", "photo": "20260410_115624.jpg" }, "geometry": { "type": "MultiPolygon", "coordinates": [ [ [ [ -0.652839652339483, 44.841162985510728 ], [ -0.652651130374782, 44.841160215065244 ], [ -0.652652531922967, 44.841145141866178 ], [ -0.652841440917793, 44.841149062219998 ], [ -0.652839652339483, 44.841162985510728 ] ] ] ] } },
{ "type": "Feature", "properties": { "fid": 155, "type": "Problème de revêtement Marquages effacés", "description": "Marquage +revtement", "photo": "20260410_114615.jpg" }, "geometry": { "type": "MultiPolygon", "coordinates": [ [ [ [ -0.666703287201558, 44.841665270431875 ], [ -0.666383245738935, 44.841675895097445 ], [ -0.664061432547567, 44.841929238581116 ], [ -0.662943739516168, 44.842036438188885 ], [ -0.661540900180991, 44.842158633446772 ], [ -0.661117924033234, 44.84216467662327 ], [ -0.659642459322778, 44.841867009573384 ], [ -0.659005769529771, 44.841732114809673 ], [ -0.658548710958547, 44.841674608994325 ], [ -0.657693479125752, 44.841651559931243 ], [ -0.657715743764737, 44.841537919622866 ], [ -0.658923875092641, 44.841595554684133 ], [ -0.659325086235972, 44.841681797443997 ], [ -0.660362128770836, 44.841879018368573 ], [ -0.660794381483383, 44.841961884689809 ], [ -0.661397681559306, 44.842034223964582 ], [ -0.662136793788914, 44.841974240646287 ], [ -0.662671639070944, 44.841932589214871 ], [ -0.663731632242903, 44.841822738303556 ], [ -0.664022380862414, 44.841796008566959 ], [ -0.664316142374318, 44.841763744852329 ], [ -0.665144682699061, 44.841688754387697 ], [ -0.665936710148778, 44.841620864175141 ], [ -0.666736005829894, 44.841576165178957 ], [ -0.666703287201558, 44.841665270431875 ] ] ] ] } },
{ "type": "Feature", "properties": { "fid": 142, "type": "Problème de revêtement", "description": "Bump", "photo": "20260410_112607.jpg" }, "geometry": { "type": "MultiPolygon", "coordinates": [ [ [ [ -0.660748863278384, 44.857613919871945 ], [ -0.660592638060849, 44.857628885783889 ], [ -0.660512226813344, 44.857600295369352 ], [ -0.660695716808656, 44.857591480879343 ], [ -0.660748863278384, 44.857613919871945 ] ] ] ] } },
{ "type": "Feature", "properties": { "fid": 141, "type": "Problème de revêtement", "description": "Etroit et casser", "photo": "20260410_112510.jpg" }, "geometry": { "type": "MultiPolygon", "coordinates": [ [ [ [ -0.660550993266884, 44.85759661612132 ], [ -0.660513420957367, 44.85760038931204 ], [ -0.660384524005557, 44.857556146641613 ], [ -0.659884869515449, 44.857449223433704 ], [ -0.65988957486147, 44.857438508743918 ], [ -0.660026611109133, 44.857471712822417 ], [ -0.660128910419871, 44.857494008725524 ], [ -0.660414944783039, 44.857547512215561 ], [ -0.660550993266884, 44.85759661612132 ] ] ] ] } },
{ "type": "Feature", "properties": { "fid": 139, "type": "Problème de revêtement", "description": "Revetement ", "photo": "20260410_112328.jpg" }, "geometry": { "type": "MultiPolygon", "coordinates": [ [ [ [ -0.655916100869633, 44.856896342176199 ], [ -0.656025963163004, 44.856909049734874 ], [ -0.65601658588173, 44.856885968940446 ], [ -0.655939549879748, 44.856877974534548 ], [ -0.655916100869633, 44.856896342176199 ] ] ] ] } },
{ "type": "Feature", "properties": { "fid": 130, "type": "Problème de revêtement", "description": "Revetement ", "photo": "20260410_110509.jpg" }, "geometry": { "type": "MultiPolygon", "coordinates": [ [ [ [ -0.655346967886599, 44.856754253974351 ], [ -0.655220963976745, 44.856738954418347 ], [ -0.6552231298586, 44.856723702932427 ], [ -0.655274832445032, 44.856736274984605 ], [ -0.655347695757797, 44.856745689093572 ], [ -0.655346967886599, 44.856754253974351 ] ] ] ] } },
{ "type": "Feature", "properties": { "fid": 119, "type": "Problème de revêtement", "description": "Agglomération de cailloux sur la bande cyclable ", "photo": "JPEG_20260410_110258_489700969365692856.jpg" }, "geometry": { "type": "MultiPolygon", "coordinates": [ [ [ [ -0.658841899900917, 44.857193968501534 ], [ -0.658705592210315, 44.857175816489722 ], [ -0.658709432265695, 44.857163250567325 ], [ -0.65884533789915, 44.857181542162067 ], [ -0.658841899900917, 44.857193968501534 ] ] ] ] } },
{ "type": "Feature", "properties": { "fid": 127, "type": "Problème de revêtement", "description": "Revetement", "photo": "20260410_105306.jpg" }, "geometry": { "type": "MultiPolygon", "coordinates": [ [ [ [ -0.665225782529652, 44.858416921018339 ], [ -0.665230046845251, 44.858389873875197 ], [ -0.66534121976631, 44.858405635108582 ], [ -0.665336281763652, 44.858428490844901 ], [ -0.665225782529652, 44.858416921018339 ] ] ] ] } },
{ "type": "Feature", "properties": { "fid": 131, "type": "Problème de revêtement", "description": "Revêtement", "photo": "20260410_110631.jpg" }, "geometry": { "type": "MultiPolygon", "coordinates": [ [ [ [ -0.654555732450275, 44.856659144108598 ], [ -0.65428470829057, 44.856632099554226 ], [ -0.65429067115245, 44.85659703493873 ], [ -0.654561483301748, 44.856621314950125 ], [ -0.654555732450275, 44.856659144108598 ] ] ] ] } },
{ "type": "Feature", "properties": { "fid": 159, "type": "Problème de revêtement", "description": "Revetement+ bande", "photo": "20260410_115255.jpg" }, "geometry": { "type": "MultiPolygon", "coordinates": [ [ [ [ -0.656198193455113, 44.84148917829674 ], [ -0.655162787663649, 44.841395705339238 ], [ -0.654136604727411, 44.841273458253511 ], [ -0.654142951526401, 44.841249142884614 ], [ -0.655169660965066, 44.841372964089757 ], [ -0.656201904118969, 44.84146539532405 ], [ -0.656198193455113, 44.84148917829674 ] ] ] ] } },
{ "type": "Feature", "properties": { "fid": 168, "type": "Problème de revêtement", "description": "Déformation et trou dans le sol", "photo": "JPEG_20260414_103444_1213259666869584026.jpg" }, "geometry": { "type": "MultiPolygon", "coordinates": [ [ [ [ -0.648143428589881, 44.829735708785023 ], [ -0.648136230067735, 44.829694000635953 ], [ -0.648178351752774, 44.829685069346006 ], [ -0.648181898597155, 44.829736014817726 ], [ -0.648143428589881, 44.829735708785023 ] ] ] ] } },
{ "type": "Feature", "properties": { "fid": 169, "type": "Problème de revêtement", "description": "Déformation de la chaussée", "photo": "JPEG_20260414_103602_3512854895254160136.jpg" }, "geometry": { "type": "MultiPolygon", "coordinates": [ [ [ [ -0.648170784976134, 44.829396028269706 ], [ -0.648148937297708, 44.829393826820059 ], [ -0.648143988440477, 44.829443565359547 ], [ -0.648166929545004, 44.829446680075257 ], [ -0.648170784976134, 44.829396028269706 ] ] ] ] } },
{ "type": "Feature", "properties": { "fid": 172, "type": "Problème de revêtement", "description": "Déformation et rehaut du sol", "photo": null }, "geometry": { "type": "MultiPolygon", "coordinates": [ [ [ [ -0.648833410973861, 44.828279511979204 ], [ -0.648918923450867, 44.82824080698817 ], [ -0.648919445335724, 44.82825196932928 ], [ -0.648845210793212, 44.8282893291357 ], [ -0.648833410973861, 44.828279511979204 ] ] ] ] } },
{ "type": "Feature", "properties": { "fid": 177, "type": "Problème de revêtement", "description": "Troue dans la voie", "photo": "JPEG_20260414_105132_2811640230526038107.jpg" }, "geometry": { "type": "MultiPolygon", "coordinates": [ [ [ [ -0.648260382835967, 44.828817521432541 ], [ -0.648278008820454, 44.828779335445638 ], [ -0.648267195464401, 44.828764841999586 ], [ -0.648244716845516, 44.82877241042231 ], [ -0.648224682823532, 44.828809214212185 ], [ -0.648237348268759, 44.828823939126323 ], [ -0.648260382835967, 44.828817521432541 ] ] ] ] } },
{ "type": "Feature", "properties": { "fid": 179, "type": "Problème de revêtement", "description": "Chaussée déformée", "photo": "JPEG_20260414_105430_8596673077171710908.jpg" }, "geometry": { "type": "MultiPolygon", "coordinates": [ [ [ [ -0.648030188481833, 44.829197087765507 ], [ -0.648059506426028, 44.829204386745751 ], [ -0.648036050046462, 44.829265941598642 ], [ -0.648008339265408, 44.829261870880437 ], [ -0.648030188481833, 44.829197087765507 ] ] ] ] } },
{ "type": "Feature", "properties": { "fid": 181, "type": "Problème de revêtement", "description": "Grille des arbres qui sort du sol(environ 3-4 cm)", "photo": "JPEG_20260414_105737_6310569400281205243.jpg" }, "geometry": { "type": "MultiPolygon", "coordinates": [ [ [ [ -0.647918807969098, 44.829979446092224 ], [ -0.647961615165797, 44.829976802214496 ], [ -0.647964793823112, 44.830001483723841 ], [ -0.647923097900791, 44.830005493028686 ], [ -0.647918807969098, 44.829979446092224 ] ] ] ] } },
{ "type": "Feature", "properties": { "fid": 184, "type": "Problème de revêtement", "description": "Chaussée déformée", "photo": "JPEG_20260414_110104_4725173195257496558.jpg" }, "geometry": { "type": "MultiPolygon", "coordinates": [ [ [ [ -0.648030191150015, 44.830498659290114 ], [ -0.647959146739638, 44.830493231075742 ], [ -0.64795581979689, 44.830453973969242 ], [ -0.647994405837269, 44.830454419918972 ], [ -0.648003778061631, 44.830474541073542 ], [ -0.64803103791907, 44.83047472734242 ], [ -0.648030191150015, 44.830498659290114 ] ] ] ] } },
{ "type": "Feature", "properties": { "fid": 185, "type": "Problème de revêtement", "description": "Chaussée déformée ", "photo": "JPEG_20260414_110159_1333707033181405743.jpg" }, "geometry": { "type": "MultiPolygon", "coordinates": [ [ [ [ -0.648048988340923, 44.830738720252981 ], [ -0.648028308194133, 44.830740572808658 ], [ -0.648041974273855, 44.830782463157959 ], [ -0.648040488874118, 44.830820373760503 ], [ -0.648058977665153, 44.83082223019148 ], [ -0.648059594662555, 44.830782465095737 ], [ -0.648048988340923, 44.830738720252981 ] ] ] ] } },
{ "type": "Feature", "properties": { "fid": 188, "type": "Problème de revêtement", "description": "Agglomérat de cailloux sur le sol", "photo": "JPEG_20260414_111422_3146022357781031304.jpg" }, "geometry": { "type": "MultiPolygon", "coordinates": [ [ [ [ -0.649903322546212, 44.819983676376125 ], [ -0.649887680489304, 44.819938329175152 ], [ -0.649847025985227, 44.819897713165105 ], [ -0.649863723194292, 44.819874594954406 ], [ -0.649918925650076, 44.819904151392819 ], [ -0.64992281056215, 44.819980184061151 ], [ -0.649903322546212, 44.819983676376125 ] ] ] ] } },
{ "type": "Feature", "properties": { "fid": 192, "type": "Problème de revêtement", "description": "Chaussée formée par les racines", "photo": "JPEG_20260414_112729_6032274291540034605.jpg" }, "geometry": { "type": "MultiPolygon", "coordinates": [ [ [ [ -0.649368490431123, 44.81981553691169 ], [ -0.649383489469823, 44.819724627153022 ], [ -0.649346911392972, 44.819771157668697 ], [ -0.649267185859886, 44.819833414291011 ], [ -0.649197160827042, 44.819883056067944 ], [ -0.649130471669978, 44.819976117179621 ], [ -0.649084397852297, 44.820053293289966 ], [ -0.649170257854172, 44.820038468410772 ], [ -0.649204704149014, 44.819956819510892 ], [ -0.649276896790962, 44.819886178211291 ], [ -0.649368490431123, 44.81981553691169 ] ] ] ] } },
{ "type": "Feature", "properties": { "fid": 193, "type": "Problème de revêtement", "description": "Chaussée déformée ", "photo": "JPEG_20260414_112926_1496354684251533397.jpg" }, "geometry": { "type": "MultiPolygon", "coordinates": [ [ [ [ -0.649456006578079, 44.820319316933755 ], [ -0.649425054408836, 44.820292765959834 ], [ -0.649387402664185, 44.820291559787286 ], [ -0.649470406714199, 44.82039011997626 ], [ -0.649482188777178, 44.820366598810125 ], [ -0.649456006578079, 44.820319316933755 ] ] ] ] } },
{ "type": "Feature", "properties": { "fid": 195, "type": "Problème de revêtement Marquages effacés", "description": "Marquages effacés et bouche d'égout qui sort", "photo": "JPEG_20260414_115953_6601446283661036845.jpg" }, "geometry": { "type": "MultiPolygon", "coordinates": [ [ [ [ -0.66912715350723, 44.842549977029499 ], [ -0.669143582023925, 44.842534657509034 ], [ -0.669312691006411, 44.842623176060748 ], [ -0.669302613864327, 44.842636150589584 ], [ -0.66912715350723, 44.842549977029499 ] ] ] ] } },
{ "type": "Feature", "properties": { "fid": 198, "type": "Problème de revêtement", "description": "Trous dans le voie ", "photo": "JPEG_20260414_122512_5893711332563942701.jpg" }, "geometry": { "type": "MultiPolygon", "coordinates": [ [ [ [ -0.682075760817257, 44.844486509086451 ], [ -0.682051099204034, 44.84451794134695 ], [ -0.682144031827795, 44.844535923092366 ], [ -0.682158465917377, 44.844511437578809 ], [ -0.682075760817257, 44.844486509086451 ] ] ] ] } },
{ "type": "Feature", "properties": { "fid": 202, "type": "Problème de revêtement", "description": "Bouches d'égout qui ressortent", "photo": "JPEG_20260414_124510_8665595407206341193.jpg" }, "geometry": { "type": "MultiPolygon", "coordinates": [ [ [ [ -0.676984254531992, 44.857708279411071 ], [ -0.676870989590872, 44.857576719093409 ], [ -0.676902227997671, 44.857559686092124 ], [ -0.677023179560868, 44.857699965197988 ], [ -0.676984254531992, 44.857708279411071 ] ] ] ] } },
{ "type": "Feature", "properties": { "fid": 216, "type": "Problème de revêtement", "description": "Revetement vieilli, craquelure", "photo": "20260414_103405.jpg" }, "geometry": { "type": "MultiPolygon", "coordinates": [ [ [ [ -0.665681223825533, 44.821554314899451 ], [ -0.665841331360579, 44.821227154227387 ], [ -0.665911784537699, 44.820966316270066 ], [ -0.665941645972628, 44.8205931430346 ], [ -0.665950702486982, 44.820031637795303 ], [ -0.66594283075907, 44.8190748695691 ], [ -0.665995127621795, 44.818709924923873 ], [ -0.665704238775366, 44.818737114894525 ], [ -0.66578908490617, 44.819045986956766 ], [ -0.665805739966519, 44.819684915609102 ], [ -0.665814433113159, 44.82055173012138 ], [ -0.665761033095597, 44.820906489266036 ], [ -0.665694466743708, 44.82116318822365 ], [ -0.665543217784754, 44.82152884372276 ], [ -0.665681223825533, 44.821554314899451 ] ] ] ] } },
{ "type": "Feature", "properties": { "fid": 217, "type": "Problème de revêtement", "description": "Fissures entree amenagement", "photo": "20260414_103531.jpg" }, "geometry": { "type": "MultiPolygon", "coordinates": [ [ [ [ -0.665762901272448, 44.818677493982626 ], [ -0.665683655342426, 44.818700380814974 ], [ -0.665641334224614, 44.81862562960908 ], [ -0.665542130633215, 44.818563293511716 ], [ -0.665639985148582, 44.818562745692709 ], [ -0.665713774002643, 44.818608754579216 ], [ -0.665762901272448, 44.818677493982626 ] ] ] ] } },
{ "type": "Feature", "properties": { "fid": 218, "type": "Problème de revêtement", "description": "Fissure importantes", "photo": "20260414_103705.jpg" }, "geometry": { "type": "MultiPolygon", "coordinates": [ [ [ [ -0.666029058510159, 44.818649335858282 ], [ -0.666159563156013, 44.818528323481708 ], [ -0.666340503273335, 44.81840122460018 ], [ -0.666302738497172, 44.818217136567242 ], [ -0.666077375534555, 44.818103965208003 ], [ -0.665993705926286, 44.81803154910061 ], [ -0.66568240469467, 44.818046200284499 ], [ -0.66556886822418, 44.818175818762249 ], [ -0.665433014928424, 44.818273776479955 ], [ -0.665479732429571, 44.818476789828118 ], [ -0.665727615278915, 44.81860580456069 ], [ -0.666029058510159, 44.818649335858282 ] ] ] ] } },
{ "type": "Feature", "properties": { "fid": 222, "type": "Problème de revêtement", "description": "Fissure", "photo": "20260414_105815.jpg" }, "geometry": { "type": "MultiPolygon", "coordinates": [ [ [ [ -0.665822709883925, 44.817598524144174 ], [ -0.665799529390332, 44.817596468704529 ], [ -0.665801742608253, 44.817551017009038 ], [ -0.665823109213079, 44.817549449343495 ], [ -0.665822709883925, 44.817598524144174 ] ] ] ] } },
{ "type": "Feature", "properties": { "fid": 225, "type": "Problème de revêtement", "description": "Revetemenr", "photo": "20260414_110359.jpg" }, "geometry": { "type": "MultiPolygon", "coordinates": [ [ [ [ -0.664349883971101, 44.8283237375027 ], [ -0.664368159208294, 44.828330843331699 ], [ -0.664268245119683, 44.827731098913233 ], [ -0.664199373162264, 44.827385239130486 ], [ -0.664186557692397, 44.827387230310208 ], [ -0.664349883971101, 44.8283237375027 ] ] ] ] } },
{ "type": "Feature", "properties": { "fid": 226, "type": "Problème de revêtement", "description": "Revetement", "photo": "20260414_110851.jpg" }, "geometry": { "type": "MultiPolygon", "coordinates": [ [ [ [ -0.667307899966764, 44.83740237159094 ], [ -0.66714413220134, 44.837789417511985 ], [ -0.666955578769888, 44.838190133391173 ], [ -0.666930437722116, 44.838186048275517 ], [ -0.667120612821466, 44.837752138203413 ], [ -0.667213798437668, 44.837573148297878 ], [ -0.667322130851081, 44.837282845373913 ], [ -0.667307899966764, 44.83740237159094 ] ] ] ] } },
{ "type": "Feature", "properties": { "fid": 232, "type": "Problème de revêtement", "description": "Qualite revetement plus traversee effacer", "photo": "20260414_115128.jpg" }, "geometry": { "type": "MultiPolygon", "coordinates": [ [ [ [ -0.699595799673268, 44.818008321806985 ], [ -0.699645154362244, 44.817943554521818 ], [ -0.699668072044028, 44.817861738969761 ], [ -0.699608281650831, 44.817849456688577 ], [ -0.699592752542371, 44.817941250978578 ], [ -0.699521946055729, 44.818031340441046 ], [ -0.699595799673268, 44.818008321806985 ] ] ] ] } },
{ "type": "Feature", "properties": { "fid": 241, "type": "Problème de revêtement", "description": "Revetement ", "photo": "20260414_121529.jpg" }, "geometry": { "type": "MultiPolygon", "coordinates": [ [ [ [ -0.682640630699983, 44.84184248291173 ], [ -0.682636730269629, 44.841776572082964 ], [ -0.682650937395448, 44.841706809467972 ], [ -0.682704057157072, 44.84164506974043 ], [ -0.682711941770395, 44.841650655454664 ], [ -0.682739523094084, 44.841674792419148 ], [ -0.682689682052018, 44.841717134319232 ], [ -0.682678342198071, 44.841779391016587 ], [ -0.682681488392213, 44.841846783428046 ], [ -0.682640630699983, 44.84184248291173 ] ] ] ] } },
{ "type": "Feature", "properties": { "fid": 245, "type": "Problème de revêtement", "description": "Fissure", "photo": "20260414_121926.jpg" }, "geometry": { "type": "MultiPolygon", "coordinates": [ [ [ [ -0.681170473566397, 44.844368956517265 ], [ -0.681243811476975, 44.844222510860789 ], [ -0.681216495455156, 44.844211662939209 ], [ -0.681144918914999, 44.844359685748699 ], [ -0.681170473566397, 44.844368956517265 ] ] ] ] } },
{ "type": "Feature", "properties": { "fid": 244, "type": "Problème de revêtement", "description": "Caniveau", "photo": "20260414_121731.jpg" }, "geometry": { "type": "MultiPolygon", "coordinates": [ [ [ [ -0.682033967366945, 44.843138544885868 ], [ -0.682001270232782, 44.843126743660761 ], [ -0.681960055176421, 44.843120529016801 ], [ -0.681972154504611, 44.843137627970158 ], [ -0.682013332825328, 44.843147803619317 ], [ -0.682033967366945, 44.843138544885868 ] ] ] ] } },
{ "type": "Feature", "properties": { "fid": 239, "type": "Problème de revêtement", "description": "Caniveau", "photo": "20260414_121433.jpg" }, "geometry": { "type": "MultiPolygon", "coordinates": [ [ [ [ -0.682765406280652, 44.841736647140827 ], [ -0.682749120598966, 44.841676994135256 ], [ -0.682711941770395, 44.841650655454664 ], [ -0.682704702229916, 44.841644319988916 ], [ -0.682704057157072, 44.84164506974043 ], [ -0.682675039483475, 44.841624512685087 ], [ -0.682729161271832, 44.841574873251524 ], [ -0.682864857679636, 44.841601609006936 ], [ -0.682961970813782, 44.841577121266738 ], [ -0.682765406280652, 44.841736647140827 ] ] ] ] } },
{ "type": "Feature", "properties": { "fid": 157, "type": "Problème de revêtement", "description": "Trottoir mais bon", "photo": "20260410_115014.jpg" }, "geometry": { "type": "MultiPolygon", "coordinates": [ [ [ [ -0.659162332222059, 44.841643896843273 ], [ -0.659025016569099, 44.841614344537057 ], [ -0.659031835211442, 44.841599574870301 ], [ -0.659082627177854, 44.841608648486059 ], [ -0.659197144440363, 44.841626184346765 ], [ -0.659162332222059, 44.841643896843273 ] ] ] ] } },
{ "type": "Feature", "properties": { "fid": 137, "type": "Problème de revêtement", "description": "Bouche d’egout", "photo": "20260410_112201.jpg" }, "geometry": { "type": "MultiPolygon", "coordinates": [ [ [ [ -0.654100239112065, 44.856720396472113 ], [ -0.654202276144953, 44.856730451066923 ], [ -0.654204846732012, 44.856703163522141 ], [ -0.654104341279311, 44.856694298261772 ], [ -0.654100239112065, 44.856720396472113 ] ] ] ] } },
{ "type": "Feature", "properties": { "fid": 156, "type": "Problème de revêtement", "description": "Bouche d’egout", "photo": "20260410_114958.jpg" }, "geometry": { "type": "MultiPolygon", "coordinates": [ [ [ [ -0.658622263867405, 44.841567986130158 ], [ -0.658950221006059, 44.841597927235235 ], [ -0.658955260993926, 44.841582165459158 ], [ -0.658622987021536, 44.841536404759616 ], [ -0.658622263867405, 44.841567986130158 ] ] ] ] } },
{ "type": "Feature", "properties": { "fid": 210, "type": "Problème de revêtement", "description": "Bouche d’egout", "photo": "20260414_102531.jpg" }, "geometry": { "type": "MultiPolygon", "coordinates": [ [ [ [ -0.665979002487395, 44.832741143315275 ], [ -0.665946993724264, 44.832746424035086 ], [ -0.665917503906343, 44.832655599010714 ], [ -0.665951679930016, 44.832650103012206 ], [ -0.665979002487395, 44.832741143315275 ] ] ] ] } }
]
}
