{
  "type": "FeatureCollection",
  "features": [
    {
      "type": "Feature",
      "properties": {
        "Projet": "Rénovation de l'aménagement"
      },
      "geometry": {
        "coordinates": [
          [
            [
              -0.6481608038677962,
              44.83271942038181
            ],
            [
              -0.6482057858035546,
              44.83148443073256
            ],
            [
              -0.6481093954429014,
              44.82938981515039
            ],
            [
              -0.6486829759056434,
              44.82840074197543
            ],
            [
              -0.6488821816214738,
              44.82824578846589
            ],
            [
              -0.6487793657677798,
              44.8280680471629
            ],
            [
              -0.648528752125543,
              44.828027029861005
            ],
            [
              -0.6483873803275912,
              44.82825490339005
            ],
            [
              -0.6482781384842724,
              44.82865595861148
            ],
            [
              -0.6479247089883415,
              44.82934868378601
            ],
            [
              -0.6480005359670145,
              44.831300078317696
            ],
            [
              -0.6479748351050318,
              44.832366139499754
            ],
            [
              -0.6478848712334297,
              44.83267146683542
            ],
            [
              -0.6481608038677962,
              44.83271942038181
            ]
          ]
        ],
        "type": "Polygon"
      }
    },
    {
      "type": "Feature",
      "properties": {
        "Projet": "Réflexion sur les tournes à gauche potentielles étude pour créer des aménagemtns vélo au vu des enjeux vaec une école primaire à proximitée immédiate et le parc du Renard"
      },
      "geometry": {
        "coordinates": [
          [
            [
              -0.6675031218742618,
              44.84197409062364
            ],
            [
              -0.6672434787807902,
              44.84197506203441
            ],
            [
              -0.6674195583345863,
              44.8427678538859
            ],
            [
              -0.6672170668475985,
              44.843722935092956
            ],
            [
              -0.6670938102658397,
              44.84488399296373
            ],
            [
              -0.6667433790449593,
              44.84630412914791
            ],
            [
              -0.6667345745771627,
              44.84763709576649
            ],
            [
              -0.6665761023418497,
              44.84875110851712
            ],
            [
              -0.6662327469226739,
              44.84915057995548
            ],
            [
              -0.6665056702306913,
              44.84920051370162
            ],
            [
              -0.6668138084681061,
              44.84865747796249
            ],
            [
              -0.6670074959778276,
              44.84774617169478
            ],
            [
              -0.6669634760887106,
              44.84699090009471
            ],
            [
              -0.6670453181689027,
              44.84612686440704
            ],
            [
              -0.6672830255664053,
              44.84546520345572
            ],
            [
              -0.6674238892083793,
              44.84479729271192
            ],
            [
              -0.6674679059637469,
              44.84395917097291
            ],
            [
              -0.6676615934721326,
              44.843316212185584
            ],
            [
              -0.6675999656297904,
              44.84239233651013
            ],
            [
              -0.6675031218742618,
              44.84197409062364
            ]
          ]
        ],
        "type": "Polygon"
      }
    },
    {
      "type": "Feature",
      "properties": {
        "Projet": "Sécurisation des traversée, entretiens des végétations"
      },
      "geometry": {
        "coordinates": [
          [
            [
              -0.6795093697311927,
              44.84820028669034
            ],
            [
              -0.6797467514196285,
              44.84808336352472
            ],
            [
              -0.6798192153032403,
              44.84791506461207
            ],
            [
              -0.6796992750817878,
              44.84770956211446
            ],
            [
              -0.6800702462471406,
              44.846661848340005
            ],
            [
              -0.6808935748458964,
              44.845933396735916
            ],
            [
              -0.6811859291356654,
              44.84545682601495
            ],
            [
              -0.6813993465522117,
              44.84535703248568
            ],
            [
              -0.6819160484727433,
              44.8443909110016
            ],
            [
              -0.68187109907646,
              44.8442001706847
            ],
            [
              -0.6821591937307971,
              44.84344006125767
            ],
            [
              -0.6827101051351292,
              44.842237150838685
            ],
            [
              -0.6830550268612114,
              44.841656973633434
            ],
            [
              -0.684077816708708,
              44.841329633886886
            ],
            [
              -0.6845650738572999,
              44.84109575942591
            ],
            [
              -0.6850816973833957,
              44.84065368888801
            ],
            [
              -0.6855489644952399,
              44.840533206809994
            ],
            [
              -0.6855589595140543,
              44.84027452385098
            ],
            [
              -0.6853840466912118,
              44.840107973933385
            ],
            [
              -0.6850392185554028,
              44.84005659141502
            ],
            [
              -0.6847293729833268,
              44.84016467183187
            ],
            [
              -0.6847593580388889,
              44.840591676085296
            ],
            [
              -0.68412467436778,
              44.84106474349218
            ],
            [
              -0.6829027399208769,
              44.841540140522596
            ],
            [
              -0.6824529171595941,
              44.84203628360055
            ],
            [
              -0.6820905977414782,
              44.84296998875354
            ],
            [
              -0.6816247308434811,
              44.844055664774004
            ],
            [
              -0.6813823516468176,
              44.844174367800235
            ],
            [
              -0.6811424014696286,
              44.84445892054839
            ],
            [
              -0.6807793606249675,
              44.84521139115208
            ],
            [
              -0.6808743132998814,
              44.845361981481034
            ],
            [
              -0.6806808197329133,
              44.84588994398746
            ],
            [
              -0.6798487381434768,
              44.846574506133436
            ],
            [
              -0.6797262991675268,
              44.8468579632472
            ],
            [
              -0.6794590505241729,
              44.847676609210964
            ],
            [
              -0.6792091750631926,
              44.84780770579104
            ],
            [
              -0.679121718460749,
              44.84790868544627
            ],
            [
              -0.6791517080895346,
              44.84810747791238
            ],
            [
              -0.6795093697311927,
              44.84820028669034
            ]
          ]
        ],
        "type": "Polygon"
      }
    },
    {
      "type": "Feature",
      "properties": {
        "Projet": "Sécurisation des giratoires et travail sur les revêtements vieillissants"
      },
      "geometry": {
        "coordinates": [
          [
            [
              -0.6655923999492188,
              44.81867117116124
            ],
            [
              -0.6657338161085704,
              44.81908664038613
            ],
            [
              -0.6657338161085704,
              44.81997353806969
            ],
            [
              -0.6657372869267988,
              44.8208090529709
            ],
            [
              -0.6655345588569901,
              44.82144237611334
            ],
            [
              -0.6654160441023862,
              44.821631518324324
            ],
            [
              -0.6652264204955713,
              44.82174920649837
            ],
            [
              -0.6652145690197528,
              44.82193414457248
            ],
            [
              -0.6648886532134668,
              44.822304017455394
            ],
            [
              -0.6630433617538927,
              44.82447060695071
            ],
            [
              -0.6628357564755447,
              44.824802927518306
            ],
            [
              -0.6628416823719192,
              44.82518116202567
            ],
            [
              -0.6629779743389292,
              44.82529464006765
            ],
            [
              -0.6636202821305233,
              44.82638528899474
            ],
            [
              -0.664076563934799,
              44.82730989907057
            ],
            [
              -0.6643767309333555,
              44.828787209358296
            ],
            [
              -0.6647316511108272,
              44.830533019299764
            ],
            [
              -0.6646960966842528,
              44.83083559881911
            ],
            [
              -0.6648501658654027,
              44.83105832995042
            ],
            [
              -0.6650931211111981,
              44.8310961521328
            ],
            [
              -0.6653182991446158,
              44.831003697866265
            ],
            [
              -0.6653834822594149,
              44.83077676403755
            ],
            [
              -0.6650694181604706,
              44.830566639324644
            ],
            [
              -0.6649153489801733,
              44.83018421038278
            ],
            [
              -0.6646458768197192,
              44.82900630956402
            ],
            [
              -0.6646458768197192,
              44.82880458365884
            ],
            [
              -0.6643910704486302,
              44.827779130634156
            ],
            [
              -0.6641777438910594,
              44.82675366145503
            ],
            [
              -0.6638206992376752,
              44.82608738401555
            ],
            [
              -0.6633718435622598,
              44.82524484371737
            ],
            [
              -0.6632888787774505,
              44.824692551238655
            ],
            [
              -0.6637214576300607,
              44.82406631123831
            ],
            [
              -0.6642429225491071,
              44.8234484704777
            ],
            [
              -0.66517228692922,
              44.82237826410346
            ],
            [
              -0.6655633856177872,
              44.82205042145563
            ],
            [
              -0.6657233805364342,
              44.821957952679554
            ],
            [
              -0.6657049888402469,
              44.821754318274685
            ],
            [
              -0.6659834985125883,
              44.82111963997619
            ],
            [
              -0.6659953499883784,
              44.820766570877964
            ],
            [
              -0.6659894243770736,
              44.81955387193213
            ],
            [
              -0.666119790606615,
              44.81877205193442
            ],
            [
              -0.6663390429016545,
              44.81847781585611
            ],
            [
              -0.6662738597860027,
              44.81820879869818
            ],
            [
              -0.6660546074909348,
              44.8179776110766
            ],
            [
              -0.6657286919162573,
              44.81804066233798
            ],
            [
              -0.665402776342404,
              44.81824242591125
            ],
            [
              -0.665402776342404,
              44.81849042600351
            ],
            [
              -0.6655923999492188,
              44.81867117116124
            ]
          ]
        ],
        "type": "Polygon"
      }
    },
    {
      "type": "Feature",
      "properties": {
        "Projet": "Étude sur le renouvellement des revêtements et la continuité des aménagementsvélos "
      },
      "geometry": {
        "coordinates": [
          [
            [
              -0.6512593527298804,
              44.84130371616041
            ],
            [
              -0.6514830985204583,
              44.84125755492295
            ],
            [
              -0.652790637371254,
              44.84128710479979
            ],
            [
              -0.6534028639868552,
              44.84137321027782
            ],
            [
              -0.653449747849578,
              44.84143230989832
            ],
            [
              -0.6537102137561703,
              44.841484022015806
            ],
            [
              -0.6539342144365605,
              44.84139167891544
            ],
            [
              -0.6560231510071048,
              44.841594833541166
            ],
            [
              -0.6562315237330267,
              44.8415578963897
            ],
            [
              -0.6573150673921759,
              44.8416354554322
            ],
            [
              -0.6575599053450674,
              44.84170194219803
            ],
            [
              -0.6588570255600246,
              44.84175365407398
            ],
            [
              -0.6598847590103958,
              44.84200109065364
            ],
            [
              -0.6601816901439292,
              44.84200478434127
            ],
            [
              -0.6612980324012483,
              44.842175877890156
            ],
            [
              -0.6614022187634134,
              44.84221281464539
            ],
            [
              -0.6641748138979437,
              44.841950165049184
            ],
            [
              -0.6650812352530977,
              44.84180980461417
            ],
            [
              -0.6663627275135013,
              44.84169160608752
            ],
            [
              -0.6669670084171742,
              44.841776561302794
            ],
            [
              -0.6672661116301555,
              44.841928111709635
            ],
            [
              -0.6675097384853821,
              44.841929416641236
            ],
            [
              -0.6676126561309204,
              44.84188416196411
            ],
            [
              -0.6676733610123016,
              44.841652668328265
            ],
            [
              -0.6674410562607118,
              44.84144712722545
            ],
            [
              -0.6670774229129677,
              44.841507642805226
            ],
            [
              -0.6667169611472161,
              44.841506920403674
            ],
            [
              -0.666321052968641,
              44.841547551305325
            ],
            [
              -0.6650758082977006,
              44.84166574145192
            ],
            [
              -0.6648778542092089,
              44.841658354032404
            ],
            [
              -0.6642683638270626,
              44.84173222825714
            ],
            [
              -0.6635598965612246,
              44.84179502121043
            ],
            [
              -0.6626222192971056,
              44.84187628257757
            ],
            [
              -0.6615292772448811,
              44.84196038135045
            ],
            [
              -0.661310485883206,
              44.84200470561933
            ],
            [
              -0.6610916945222698,
              44.84200470561933
            ],
            [
              -0.6608103913424657,
              44.84196038135045
            ],
            [
              -0.6604301111192399,
              44.841886507492575
            ],
            [
              -0.6602321570299239,
              44.84180155243948
            ],
            [
              -0.6597008065801617,
              44.84166857906098
            ],
            [
              -0.6585808031820761,
              44.84152083050219
            ],
            [
              -0.6575510447732711,
              44.84148270060879
            ],
            [
              -0.6573895559117489,
              44.84151594408968
            ],
            [
              -0.6567071346329101,
              44.84146053842835
            ],
            [
              -0.6562886309271931,
              44.841450144709185
            ],
            [
              -0.6560835053722087,
              44.8413840095744
            ],
            [
              -0.6552276882831904,
              44.84130909560409
            ],
            [
              -0.6539629888520153,
              44.841163354159136
            ],
            [
              -0.6537077322633138,
              44.84107101054482
            ],
            [
              -0.6533691265848915,
              44.841104254262774
            ],
            [
              -0.6527179618177001,
              44.84107470429208
            ],
            [
              -0.6516656795555491,
              44.84105254180386
            ],
            [
              -0.6511916316051725,
              44.84107470429208
            ],
            [
              -0.6509728402434973,
              44.841037766807204
            ],
            [
              -0.650733211598066,
              44.84104884804594
            ],
            [
              -0.6505821413723254,
              44.84117074163234
            ],
            [
              -0.6506394438717109,
              44.84133695974404
            ],
            [
              -0.6507905140982189,
              44.84143669038099
            ],
            [
              -0.6510822359130373,
              44.841396059401745
            ],
            [
              -0.6512593527298804,
              44.84130371616041
            ]
          ]
        ],
        "type": "Polygon"
      },
      "id": 4
    },
    {
      "type": "Feature",
      "properties": {
        "Projet": "Projet entretien des aménagements"
      },
      "geometry": {
        "coordinates": [
          [
            [
              -0.6596786509778667,
              44.85744981442315
            ],
            [
              -0.6598389322315938,
              44.857256777079385
            ],
            [
              -0.6592050558570861,
              44.85715692509169
            ],
            [
              -0.6571726426774092,
              44.85687875640619
            ],
            [
              -0.6532587076012817,
              44.85646508004288
            ],
            [
              -0.6497673567745892,
              44.856108460103314
            ],
            [
              -0.6464068058359942,
              44.856058533135524
            ],
            [
              -0.6464068058359942,
              44.85625824074708
            ],
            [
              -0.6490529881624809,
              44.85626537314866
            ],
            [
              -0.6503811100903647,
              44.856315299937165
            ],
            [
              -0.6533197641703055,
              44.85665099635193
            ],
            [
              -0.6557043467235246,
              44.85691489283349
            ],
            [
              -0.6572739453660006,
              44.85706467137962
            ],
            [
              -0.6591856360193731,
              44.857321433694864
            ],
            [
              -0.6596786509778667,
              44.85744981442315
            ]
          ]
        ],
        "type": "Polygon"
      }
    }
  ]
}
