{"type":"FeatureCollection","features":[{"type":"Feature","properties":{"fid":165,"type":null,"description":"Aucun aménagement dédié et de nombreux tourne-à-gauche","photo":"20260410_121756.jpg"},"geometry":{"coordinates":[[[-0.6675325362634824,44.84197482642044],[-0.6672981448842867,44.841935087533706],[-0.6675459266299713,44.84300975874025],[-0.6673227897767204,44.84365741038419],[-0.6670077913037685,44.84539391056046],[-0.6667246440985057,44.84633427935876],[-0.6666987760680467,44.8482078950492],[-0.6669542331359449,44.84817215169593],[-0.6670326336896588,44.84659489499475],[-0.6672606151603977,44.84534002586271],[-0.6674772486354086,44.844009608883354],[-0.667695119066235,44.842986295548855],[-0.6675325362634824,44.84197482642044]]],"type":"Polygon"}},{"type":"Feature","properties":{"fid":136,"type":null,"description":"Rupture d'aménagement à cause du tourne-à-gauche","photo":"20260410_112054.jpg"},"geometry":{"coordinates":[[[-0.6525313806106299,44.85648766247928],[-0.653240018134423,44.856579578169104],[-0.6532411915862824,44.85661036760236],[-0.6524819693709845,44.85653257643373],[-0.6525313806106299,44.85648766247928]]],"type":"Polygon"}},{"type":"Feature","properties":{"fid":154,"type":null,"description":"Rien","photo":"20260410_114302.jpg"},"geometry":{"coordinates":[[[-0.6662583684876091,44.84915766945867],[-0.6665283877123868,44.84920698762763],[-0.6669778260000707,44.84818857593211],[-0.6666926741931706,44.848213673188226],[-0.6665680996223549,44.84866379285556],[-0.6662583684876091,44.84915766945867]]],"type":"Polygon"}},{"type":"Feature","properties":{"fid":158,"type":null,"description":"Rien ","photo":"20260410_115203.jpg"},"geometry":{"coordinates":[[[-0.657351409444251,44.84158509311082],[-0.656392226793428,44.84154972184551],[-0.656404336063812,44.84142640619846],[-0.657245640945947,44.841489205088344],[-0.657351409444251,44.84158509311082]]],"type":"Polygon"}},{"type":"Feature","properties":{"fid":161,"type":null,"description":"Rien","photo":"20260410_115442.jpg"},"geometry":{"coordinates":[[[-0.653839142372493,44.84137898187768],[-0.653828713919386,44.841214561615736],[-0.6537208022754064,44.84111724466362],[-0.653546874561618,44.84115221585172],[-0.6533941792394615,44.84118592211176],[-0.6534280510748892,44.84132749397936],[-0.6536529710053829,44.84142548731107],[-0.653839142372493,44.84137898187768]]],"type":"Polygon"}},{"type":"Feature","properties":{"fid":163,"type":null,"description":"Rien","photo":"20260410_115755.jpg"},"geometry":{"coordinates":[[[-0.651099207084137,44.84129914979286],[-0.6510052198654162,44.84136197399987],[-0.6508646143529863,44.84139725215844],[-0.6506982575313673,44.841291168743226],[-0.650702834450553,44.84120712224085],[-0.6508373130406002,44.84111437517352],[-0.6509989856362014,44.841131812692495],[-0.6511277647297513,44.84121961309156],[-0.651099207084137,44.84129914979286]]],"type":"Polygon"}},{"type":"Feature","properties":{"fid":164,"type":null,"description":"Rien","photo":"20260410_115930.jpg"},"geometry":{"coordinates":[[[-0.650553256225344,44.84130157720759],[-0.648537409576804,44.841730855260856],[-0.647759192009922,44.84182655343775],[-0.646853694994472,44.841769576770204],[-0.647189494854163,44.84163974567918],[-0.648147319564742,44.84164212205008],[-0.650393474868883,44.841140122448984],[-0.650553256225344,44.84130157720759]]],"type":"Polygon"}},{"type":"Feature","properties":{"fid":212,"type":null,"description":"Rien +depots","photo":"20260414_102748.jpg"},"geometry":{"coordinates":[[[-0.665272061573278,44.830962883137374],[-0.665000654089764,44.830991397006066],[-0.664793148757742,44.8308596779271],[-0.664909160592871,44.83064504248965],[-0.665128476295483,44.83059843491244],[-0.66532358169238,44.83075361988491],[-0.665272061573278,44.830962883137374]]],"type":"Polygon"}},{"type":"Feature","properties":{"fid":215,"type":null,"description":"Rien + revetement","photo":"20260414_103245.jpg"},"geometry":{"coordinates":[[[-0.6655138730373343,44.82201415425023],[-0.6652542337978326,44.82184417289082],[-0.6653757579601877,44.8216594056444],[-0.6656411107014817,44.82171594307449],[-0.6656752591567796,44.82186504866236],[-0.6655138730373343,44.82201415425023]]],"type":"Polygon"}},{"type":"Feature","properties":{"fid":224,"type":null,"description":"Rien","photo":"20260414_110214.jpg"},"geometry":{"coordinates":[[[-0.663229562004954,44.82519628580205],[-0.6631125744665602,44.82527414875499],[-0.662951147251197,44.8252889731304],[-0.6628540450950223,44.824836728517745],[-0.6629869597325428,44.82469854943082],[-0.663137650239771,44.82475579165954],[-0.663229562004954,44.82519628580205]]],"type":"Polygon"}},{"type":"Feature","properties":{"fid":228,"type":null,"description":"Rien","photo":"20260414_111208.jpg"},"geometry":{"coordinates":[[[-0.667027328164007,44.84158752024649],[-0.667082035635195,44.841829648741744],[-0.66747394783932,44.84198857654388],[-0.667932483910873,44.841773650342425],[-0.667768074025695,44.84124283518588],[-0.667393877121952,44.84136211676139],[-0.667027328164007,44.84158752024649]]],"type":"Polygon"}},{"type":"Feature","properties":{"fid":253,"type":null,"description":"Rien","photo":"20260414_122854.jpg"},"geometry":{"coordinates":[[[-0.679078168973785,44.847980883637916],[-0.679351867104824,44.848193082205576],[-0.679611803306455,44.84818981991897],[-0.679848468003088,44.8480485132184],[-0.679797008173732,44.84780856872505],[-0.679380065685618,44.84772951681624],[-0.679078168973785,44.847980883637916]]],"type":"Polygon"}}]}
