{
"type": "FeatureCollection",
"name": "sas",
"crs": { "type": "name", "properties": { "name": "urn:ogc:def:crs:OGC:1.3:CRS84" } },
"features": [
{ "type": "Feature", "properties": { "fid": 118, "type": null, "description": "Sas d'attente vélo trop petit ", "photo": "JPEG_20260410_105941_5954241735114967552.jpg" }, "geometry": { "type": "Polygon", "coordinates": [ [ [ -0.660116264574231, 44.857518107719692 ], [ -0.660219865095972, 44.857560775843616 ], [ -0.660208269164323, 44.857500429939336 ], [ -0.660116264574231, 44.857518107719692 ] ] ] } },
{ "type": "Feature", "properties": { "fid": 208, "type": null, "description": "Sas ?", "photo": "20260414_102046.jpg" }, "geometry": { "type": "Polygon", "coordinates": [ [ [ -0.666310537048096, 44.833707153313355 ], [ -0.666450913182908, 44.833728691495317 ], [ -0.666459937314512, 44.833543072286403 ], [ -0.666310537048096, 44.833707153313355 ] ] ] } }
]
}
