{"type":"FeatureCollection","features":[{"type":"Feature","properties":{"fid":200,"type":"Stationnement sauvage","description":"Véhicule sur la voie","photo":"JPEG_20260414_122851_3210006534276765962.jpg"},"geometry":{"coordinates":[[[-0.6881167735377272,44.84605604637421],[-0.6885536927789807,44.84616760496579],[-0.6885737347274213,44.84611069625642],[-0.6881924996986049,44.84601679125778],[-0.6880697330054295,44.84596548381135],[-0.6850646783714901,44.84518548187836],[-0.684884321163697,44.845186849651206],[-0.6880474852156264,44.84600129249419],[-0.6881167735377272,44.84605604637421]]],"type":"Polygon"}},{"type":"Feature","properties":{"fid":121,"type":"Stationnement sauvage","description":"Véhicule qui empiète sur la bande cyclable ","photo":"JPEG_20260410_113331_5496618662933971051.jpg"},"geometry":{"coordinates":[[[-0.6335543432063142,44.846274656434154],[-0.6329782523909145,44.84621363708527],[-0.6329793492938866,44.84617652791877],[-0.6335729960377187,44.84623521516851],[-0.6335543432063142,44.846274656434154]]],"type":"Polygon"}},{"type":"Feature","properties":{"fid":132,"type":"Stationnement sauvage","description":"Stationnement ","photo":"20260410_110732.jpg"},"geometry":{"coordinates":[[[-0.6542914376741674,44.8565793565368],[-0.6542896263974711,44.85659669988077],[-0.6543137226891497,44.85660049766598],[-0.654309066760739,44.856617587869955],[-0.6540354233678949,44.85658802787033],[-0.6540433460267461,44.856570470756346],[-0.654075645566868,44.856573738442705],[-0.6540658639074362,44.856551030482215],[-0.6542914376741674,44.8565793565368]]],"type":"Polygon"}},{"type":"Feature","properties":{"fid":133,"type":"Stationnement sauvage","description":"Stationnement ","photo":"20260410_111017.jpg"},"geometry":{"coordinates":[[[-0.6460265951547002,44.85613907679383],[-0.6449702509381066,44.85614282349071],[-0.644969376738843,44.85611382876928],[-0.6460244206577486,44.85611055662997],[-0.6460265951547002,44.85613907679383]]],"type":"Polygon"}},{"type":"Feature","properties":{"fid":254,"type":"Stationnement sauvage","description":"Stationnement ","photo":"20260414_122943.jpg"},"geometry":{"coordinates":[[[-0.6792941396715592,44.848366582020844],[-0.6793174704433319,44.8483073429103],[-0.6793248634923361,44.84825847773104],[-0.6792393984549219,44.848274291795335],[-0.6792321918469627,44.84840467115085],[-0.6792941396715592,44.848366582020844]]],"type":"Polygon"}}]}
