{"type":"FeatureCollection","features":[{"type":"Feature","properties":{"fid":257,"type":null,"description":"Traversee","photo":"20260414_124058.jpg"},"geometry":{"coordinates":[[[-0.6775624650592432,44.85368346457078],[-0.6775737820545014,44.85361005051816],[-0.6772477267278085,44.853560958905874],[-0.6772392524977888,44.85364123374432],[-0.6775624650592432,44.85368346457078]]],"type":"Polygon"}},{"type":"Feature","properties":{"fid":246,"type":null,"description":"Traversee","photo":"20260414_122017.jpg"},"geometry":{"coordinates":[[[-0.681304125161542,44.844160104858986],[-0.681181200403715,44.84413289652675],[-0.6810397988951,44.84438144096145],[-0.681178279811659,44.84440998068525],[-0.681304125161542,44.844160104858986]]],"type":"Polygon"}},{"type":"Feature","properties":{"fid":243,"type":null,"description":"Traversee ","photo":"20260414_121710.jpg"},"geometry":{"coordinates":[[[-0.6820712242578882,44.843194524496134],[-0.682130596299473,44.84308297454365],[-0.682004035383071,44.8430610080173],[-0.681945744019095,44.84316197170522],[-0.6820712242578882,44.843194524496134]]],"type":"Polygon"}},{"type":"Feature","properties":{"fid":235,"type":null,"description":"Traversee ??","photo":"20260414_121127.jpg"},"geometry":{"coordinates":[[[-0.6853481473049097,44.84014856062247],[-0.6853798086152759,44.84010005083346],[-0.6852103728951019,44.84004632001419],[-0.6851687715126785,44.84009085259389],[-0.6853481473049097,44.84014856062247]]],"type":"Polygon"}},{"type":"Feature","properties":{"fid":240,"type":null,"description":"Traversee","photo":"20260414_121453.jpg"},"geometry":{"coordinates":[[[-0.6828379218631694,44.84159835247751],[-0.6827761150949663,44.8415554357414],[-0.6826796303650229,44.84165430643371],[-0.6827607721426603,44.841687823200964],[-0.6828379218631694,44.84159835247751]]],"type":"Polygon"}},{"type":"Feature","properties":{"photo":"20260414_121235.jpg","description":"Traversee","fid":788},"geometry":{"coordinates":[[[-0.6855248465080876,44.84041359529212],[-0.6855424041314109,44.84034778998165],[-0.6854884771454692,44.840342454412905],[-0.6854796983334381,44.840410927510874],[-0.6855248465080876,44.84041359529212]]],"type":"Polygon"}},{"type":"Feature","properties":{"fid":237,"type":null,"description":"Traversee","photo":"20260414_121235.jpg"},"geometry":{"coordinates":[[[-0.6848459877241175,44.840269889550534],[-0.684915171974518,44.840209744897855],[-0.6848869945210314,44.840177767803226],[-0.6848043640327693,44.840237114428646],[-0.6848459877241175,44.840269889550534]]],"type":"Polygon"}},{"type":"Feature","properties":{"fid":146,"type":null,"description":"Traversee non marquee","photo":"20260410_113239.jpg"},"geometry":{"coordinates":[[[-0.6680018426292489,44.85722471243885],[-0.668120649533841,44.857124446387196],[-0.668058181991983,44.857067189534234],[-0.6679327108577477,44.857167847430695],[-0.6680018426292489,44.85722471243885]]],"type":"Polygon"}},{"type":"Feature","properties":{"fid":213,"type":null,"description":"Traversee pas marquee","photo":"20260414_102905.jpg"},"geometry":{"coordinates":[[[-0.664554603673665,44.82900962594302],[-0.664587265995238,44.82887388627004],[-0.664373241048369,44.82891751208926],[-0.66444001562383,44.82904760047805],[-0.664554603673665,44.82900962594302]]],"type":"Polygon"}},{"type":"Feature","properties":{"fid":219,"type":null,"description":"Traversee marquage effacer","photo":"20260414_103747.jpg"},"geometry":{"coordinates":[[[-0.6663858545475723,44.81839463423482],[-0.6662000969138877,44.81817137675512],[-0.6660836413672545,44.818201144718365],[-0.6662160759684401,44.818419595097076],[-0.6663858545475723,44.81839463423482]]],"type":"Polygon"}},{"type":"Feature","properties":{"fid":229,"type":null,"description":"Traversee marquage effacer","photo":"20260414_114636.jpg"},"geometry":{"coordinates":[[[-0.700313583386716,44.81185898053339],[-0.70034967816595,44.81161094974353],[-0.69912974837462,44.81151485779027],[-0.69904490020231,44.81181384475779],[-0.700313583386716,44.81185898053339]]],"type":"Polygon"}},{"type":"Feature","properties":{"fid":232,"type":null,"description":"Qualite revetement plus traversee effacer","photo":"20260414_115128.jpg"},"geometry":{"coordinates":[[[-0.699635455183347,44.81809697261721],[-0.699766609978718,44.81784298584771],[-0.699587853054431,44.81783070356323],[-0.699356113922694,44.81802281632047],[-0.699635455183347,44.81809697261721]]],"type":"Polygon"}},{"type":"Feature","properties":{"fid":234,"type":null,"description":"Marquage effacer traversee","photo":"20260414_120903.jpg"},"geometry":{"coordinates":[[[-0.686740320698222,44.83752384870708],[-0.686898589789672,44.83752033530002],[-0.686943876740691,44.83739693538096],[-0.686633736367749,44.837352323555535],[-0.686568082249518,44.83752683803096],[-0.686740320698222,44.83752384870708]]],"type":"Polygon"}},{"type":"Feature","properties":{"fid":248,"type":null,"description":"Traversee","photo":"20260414_122409.jpg"},"geometry":{"coordinates":[[[-0.6814916909482598,44.845040295639],[-0.6815169811071052,44.844984728857845],[-0.6811117068884631,44.84489791848983],[-0.6810849030259153,44.84495727333912],[-0.6814916909482598,44.845040295639]]],"type":"Polygon"}},{"type":"Feature","properties":{"fid":249,"type":null,"description":"Traversee","photo":"20260414_122447.jpg"},"geometry":{"coordinates":[[[-0.6812057716556906,44.84546866749672],[-0.6812259447587286,44.84540630356257],[-0.6809041968766307,44.845379707395765],[-0.6808928222203952,44.8454414332402],[-0.6812057716556906,44.84546866749672]]],"type":"Polygon"}},{"type":"Feature","properties":{"fid":256,"type":null,"description":"Traversee","photo":"20260414_123903.jpg"},"geometry":{"coordinates":[[[-0.678394537725571,44.8505763053822],[-0.6782198649966368,44.85054790875197],[-0.6781648761913794,44.850823474515636],[-0.67833377241005,44.850858492067644],[-0.678394537725571,44.8505763053822]]],"type":"Polygon"}},{"type":"Feature","properties":{"fid":259,"type":null,"description":"Traversee marquage effacer","photo":"20260414_124317.jpg"},"geometry":{"coordinates":[[[-0.676842552835629,44.85513940938251],[-0.676912351558891,44.85499685255248],[-0.676810862488634,44.85499612199367],[-0.676729049157176,44.8551270408954],[-0.676842552835629,44.85513940938251]]],"type":"Polygon"}},{"type":"Feature","properties":{"fid":3000,"description":"Traversee","photo":"20260414_124058.jpg"},"geometry":{"coordinates":[[[-0.6770509666269504,44.85373041585993],[-0.6769995030525706,44.85373852319796],[-0.6769995030525706,44.85384526970918],[-0.6770643090356714,44.853838513606576],[-0.6770509666269504,44.85373041585993]]],"type":"Polygon"}},{"type":"Feature","properties":{"description":"Traversee","photo":"20260414_124058.jpg","fid":8888},"geometry":{"coordinates":[[[-0.6775892544619353,44.85379641024997],[-0.677559258207225,44.85376238686413],[-0.6775367610159435,44.85378152502105],[-0.6775570084877245,44.8538086373992],[-0.6775892544619353,44.85379641024997]]],"type":"Polygon"}},{"type":"Feature","properties":{"description":"Traversee","photo":"20260414_124058.jpg","fid":6868},"geometry":{"coordinates":[[[-0.6773392035877919,44.85405491145457],[-0.677372199468806,44.85401610370255],[-0.6771922219378155,44.853979422378586],[-0.6771667251211966,44.85402407790028],[-0.6773392035877919,44.85405491145457]]],"type":"Polygon"}}]}