{
  "type": "FeatureCollection",
  "features": [
    {
      "type": "Feature",
      "properties": {
        "fid": 128,
        "type": null,
        "description": "Vegetation",
        "photo": "20260410_105752.jpg"
      },
      "geometry": {
        "type": "Polygon",
        "coordinates": [
          [
            [
              -0.660328821058234,
              44.85757927048148
            ],
            [
              -0.660071347278499,
              44.85757231397354
            ],
            [
              -0.660191226795236,
              44.85743642514584
            ],
            [
              -0.660328821058234,
              44.85757927048148
            ]
          ]
        ]
      }
    },
    {
      "type": "Feature",
      "properties": {
        "fid": 138,
        "type": null,
        "description": "Vegeta",
        "photo": "20260410_112235.jpg"
      },
      "geometry": {
        "type": "Polygon",
        "coordinates": [
          [
            [
              -0.654719359436908,
              44.856803080064495
            ],
            [
              -0.654834381023622,
              44.856818110408774
            ],
            [
              -0.654822918777889,
              44.856637488825385
            ],
            [
              -0.654719359436908,
              44.856803080064495
            ]
          ]
        ]
      }
    },
    {
      "type": "Feature",
      "properties": {
        "fid": 145,
        "type": null,
        "description": "Vegetation ",
        "photo": "20260410_113149.jpg"
      },
      "geometry": {
        "type": "Polygon",
        "coordinates": [
          [
            [
              -0.667143506778637,
              44.85795662550846
            ],
            [
              -0.667106469042122,
              44.857938670906584
            ],
            [
              -0.667139966071808,
              44.85786578808033
            ],
            [
              -0.667143506778637,
              44.85795662550846
            ]
          ]
        ]
      }
    },
    {
      "type": "Feature",
      "properties": {
        "fid": 150,
        "type": null,
        "description": "Point d’attention vegetation",
        "photo": "20260410_113624.jpg"
      },
      "geometry": {
        "type": "Polygon",
        "coordinates": [
          [
            [
              -0.669303743993605,
              44.855834449930235
            ],
            [
              -0.669257914148873,
              44.855823367896214
            ],
            [
              -0.669275393442617,
              44.855635811179006
            ],
            [
              -0.669316958431086,
              44.85561074838484
            ],
            [
              -0.669303743993605,
              44.855834449930235
            ]
          ]
        ]
      }
    },
    {
      "type": "Feature",
      "properties": {
        "fid": 151,
        "type": null,
        "description": "Vegetation",
        "photo": "20260410_113726.jpg"
      },
      "geometry": {
        "type": "Polygon",
        "coordinates": [
          [
            [
              -0.669380702161496,
              44.85515368647377
            ],
            [
              -0.669317625202567,
              44.85516088451897
            ],
            [
              -0.669395046996107,
              44.85506542172351
            ],
            [
              -0.669380702161496,
              44.85515368647377
            ]
          ]
        ]
      }
    },
    {
      "type": "Feature",
      "properties": {
        "fid": 206,
        "type": null,
        "description": "Vegetation",
        "photo": "20260414_101905.jpg"
      },
      "geometry": {
        "type": "Polygon",
        "coordinates": [
          [
            [
              -0.667597709585721,
              44.83554580798014
            ],
            [
              -0.667357199201986,
              44.83536823070418
            ],
            [
              -0.667484827064467,
              44.835245507283894
            ],
            [
              -0.667597709585721,
              44.83554580798014
            ]
          ]
        ]
      }
    },
    {
      "type": "Feature",
      "properties": {
        "fid": 214,
        "type": null,
        "description": "Attention vegetation",
        "photo": "20260414_103127.jpg"
      },
      "geometry": {
        "type": "Polygon",
        "coordinates": [
          [
            [
              -0.664065118494635,
              44.823548800309716
            ],
            [
              -0.663875829494355,
              44.82350906301587
            ],
            [
              -0.664838395284575,
              44.822442230653564
            ],
            [
              -0.665033817349111,
              44.82247718536847
            ],
            [
              -0.664065118494635,
              44.823548800309716
            ]
          ]
        ]
      }
    },
    {
      "type": "Feature",
      "properties": {
        "fid": 223,
        "type": null,
        "description": "Vegetation",
        "photo": "20260414_105919.jpg"
      },
      "geometry": {
        "type": "Polygon",
        "coordinates": [
          [
            [
              -0.665752967853958,
              44.8178656708373
            ],
            [
              -0.665661903756305,
              44.81785723453482
            ],
            [
              -0.665657268410139,
              44.81803552368154
            ],
            [
              -0.665752967853958,
              44.8178656708373
            ]
          ]
        ]
      }
    },
    {
      "type": "Feature",
      "properties": {
        "fid": 233,
        "type": null,
        "description": "Vegetatio ",
        "photo": "20260414_120736.jpg"
      },
      "geometry": {
        "type": "Polygon",
        "coordinates": [
          [
            [
              -0.687646362999112,
              44.83572202276439
            ],
            [
              -0.68744079814951,
              44.835926299198405
            ],
            [
              -0.687359013197158,
              44.83566406090038
            ],
            [
              -0.687646362999112,
              44.83572202276439
            ]
          ]
        ]
      }
    },
    {
      "type": "Feature",
      "properties": {
        "fid": 236,
        "type": null,
        "description": "Vegetation",
        "photo": "20260414_121156.jpg"
      },
      "geometry": {
        "type": "Polygon",
        "coordinates": [
          [
            [
              -0.684971687680815,
              44.84019448590313
            ],
            [
              -0.685171118250136,
              44.84007870942778
            ],
            [
              -0.685097128734403,
              44.84003065044257
            ],
            [
              -0.684971687680815,
              44.84019448590313
            ]
          ]
        ]
      }
    },
    {
      "type": "Feature",
      "properties": {
        "fid": 238,
        "type": null,
        "description": "Vegetation",
        "photo": "20260414_121306.jpg"
      },
      "geometry": {
        "type": "Polygon",
        "coordinates": [
          [
            [
              -0.684863534994063,
              44.840459779203556
            ],
            [
              -0.684820849316425,
              44.840329603411554
            ],
            [
              -0.6847146957689,
              44.84033304041638
            ],
            [
              -0.684863534994063,
              44.840459779203556
            ]
          ]
        ]
      }
    },
    {
      "type": "Feature",
      "properties": {
        "fid": 247,
        "type": null,
        "description": "Vegetation",
        "photo": "20260414_122348.jpg"
      },
      "geometry": {
        "type": "Polygon",
        "coordinates": [
          [
            [
              -0.681114110194699,
              44.845072750497465
            ],
            [
              -0.681094530267099,
              44.8447663529433
            ],
            [
              -0.680794858908931,
              44.84475242701964
            ],
            [
              -0.681114110194699,
              44.845072750497465
            ]
          ]
        ]
      }
    }
  ]
}
