{
  "type": "FeatureCollection",
  "features": [
    {
      "type": "Feature",
      "properties": {
        "fid": 207,
        "type": null,
        "description": "Visibilite obstruer par la végétation",
        "photo": "20260414_101936.jpg"
      },
      "geometry": {
        "coordinates": [
          [
            [
              -0.667452534837414,
              44.83555067031635
            ],
            [
              -0.6671683976151577,
              44.835383481809956
            ],
            [
              -0.6673140006047131,
              44.83533388220285
            ],
            [
              -0.6674221735207213,
              44.83550355077327
            ],
            [
              -0.6674457219207091,
              44.83549549671536
            ],
            [
              -0.6674383498230607,
              44.83530164192099
            ],
            [
              -0.667452534837414,
              44.83555067031635
            ]
          ]
        ],
        "type": "Polygon"
      }
    }
  ]
}
